start=new Date('2023-02-20T00:00:00.000Z').valueOf();
sats=[{"BSTAR":"0.00023507000000","MEAN_ANOMALY":"245.5501","TIME_SYSTEM":"UTC","ARG_OF_PERICENTER":"114.5815","MEAN_MOTION":"15.01266153","EPOCH":"2023-02-19T11:34:06.504672","LAUNCH_DATE":"2022-07-11","MEAN_MOTION_DOT":"0.00002962","ELEMENT_SET_NO":"999","PERIAPSIS":"562.386","REV_AT_EPOCH":"3375","RA_OF_ASC_NODE":"233.2424","PERIOD":"95.919","OBJECT_ID":"2022-077W","GP_ID":"226047931","TLE_LINE1":"1 53063U 22077W   23050.48201973  .00002962  00000-0  23507-3 0  9998","OBJECT_TYPE":"PAYLOAD","TLE_LINE2":"2 53063  97.6546 233.2424 0000874 114.5815 245.5501 15.01266153 33750","DECAY_DATE":null,"INCLINATION":"97.6546","MEAN_ELEMENT_THEORY":"SGP4","OBJECT_NAME":"STARLINK-4307","CENTER_NAME":"EARTH","SITE":"AFWTR","SEMIMAJOR_AXIS":"6941.128","CLASSIFICATION_TYPE":"U","COUNTRY_CODE":"US","MEAN_MOTION_DDOT":"0.0000000000000","APOAPSIS":"563.600","ECCENTRICITY":"0.00008740","EPHEMERIS_TYPE":"0","FILE":"3811610","RCS_SIZE":"LARGE","REF_FRAME":"TEME","NORAD_CAT_ID":"53063"},{"OBJECT_NAME":"STARLINK-4313","MEAN_ELEMENT_THEORY":"SGP4","INCLINATION":"97.6586","DECAY_DATE":null,"TLE_LINE2":"2 53064  97.6586 233.2858 0001682  96.1345 264.0071 15.01260805 33753","TLE_LINE1":"1 53064U 22077X   23050.52065751  .00003747  00000-0  29614-3 0  9993","OBJECT_TYPE":"PAYLOAD","CLASSIFICATION_TYPE":"U","SEMIMAJOR_AXIS":"6941.144","CENTER_NAME":"EARTH","SITE":"AFWTR","MEAN_MOTION_DDOT":"0.0000000000000","COUNTRY_CODE":"US","REF_FRAME":"TEME","NORAD_CAT_ID":"53064","FILE":"3811610","RCS_SIZE":"LARGE","EPHEMERIS_TYPE":"0","ECCENTRICITY":"0.00016820","APOAPSIS":"564.177","TIME_SYSTEM":"UTC","MEAN_ANOMALY":"264.0071","BSTAR":"0.00029614000000","LAUNCH_DATE":"2022-07-11","EPOCH":"2023-02-19T12:29:44.808864","MEAN_MOTION":"15.01260805","ARG_OF_PERICENTER":"96.1345","OBJECT_ID":"2022-077X","PERIOD":"95.919","RA_OF_ASC_NODE":"233.2858","PERIAPSIS":"561.842","REV_AT_EPOCH":"3375","ELEMENT_SET_NO":"999","MEAN_MOTION_DOT":"0.00003747","GP_ID":"226048179"},{"MEAN_MOTION":"15.01268231","LAUNCH_DATE":"2022-07-11","EPOCH":"2023-02-19T18:45:39.893472","ARG_OF_PERICENTER":"94.8196","TIME_SYSTEM":"UTC","MEAN_ANOMALY":"265.3242","BSTAR":"0.00027759000000","GP_ID":"226052807","RA_OF_ASC_NODE":"233.5489","PERIOD":"95.919","OBJECT_ID":"2022-077Y","PERIAPSIS":"561.688","ELEMENT_SET_NO":"999","REV_AT_EPOCH":"3437","MEAN_MOTION_DOT":"0.00003509","SEMIMAJOR_AXIS":"6941.121","CLASSIFICATION_TYPE":"U","SITE":"AFWTR","CENTER_NAME":"EARTH","OBJECT_NAME":"STARLINK-4312","INCLINATION":"97.6558","MEAN_ELEMENT_THEORY":"SGP4","OBJECT_TYPE":"PAYLOAD","TLE_LINE1":"1 53065U 22077Y   23050.78171173  .00003509  00000-0  27759-3 0  9992","DECAY_DATE":null,"TLE_LINE2":"2 53065  97.6558 233.5489 0001870  94.8196 265.3242 15.01268231 34378","EPHEMERIS_TYPE":"0","REF_FRAME":"TEME","NORAD_CAT_ID":"53065","FILE":"3811753","RCS_SIZE":"LARGE","APOAPSIS":"564.284","ECCENTRICITY":"0.00018700","COUNTRY_CODE":"US","MEAN_MOTION_DDOT":"0.0000000000000"},{"SITE":"AFWTR","CENTER_NAME":"EARTH","CLASSIFICATION_TYPE":"U","SEMIMAJOR_AXIS":"6941.132","TLE_LINE2":"2 53066  97.6571 233.5493 0001727  97.6464 262.4956 15.01264729 34377","DECAY_DATE":null,"OBJECT_TYPE":"PAYLOAD","TLE_LINE1":"1 53066U 22077Z   23050.78356385  .00003476  00000-0  27504-3 0  9994","INCLINATION":"97.6571","MEAN_ELEMENT_THEORY":"SGP4","OBJECT_NAME":"STARLINK-4309","ECCENTRICITY":"0.00017270","APOAPSIS":"564.196","RCS_SIZE":"LARGE","FILE":"3811855","NORAD_CAT_ID":"53066","REF_FRAME":"TEME","EPHEMERIS_TYPE":"0","MEAN_MOTION_DDOT":"0.0000000000000","COUNTRY_CODE":"US","ARG_OF_PERICENTER":"97.6464","EPOCH":"2023-02-19T18:48:19.916640","LAUNCH_DATE":"2022-07-11","MEAN_MOTION":"15.01264729","BSTAR":"0.00027504000000","MEAN_ANOMALY":"262.4956","TIME_SYSTEM":"UTC","GP_ID":"226055036","MEAN_MOTION_DOT":"0.00003476","PERIAPSIS":"561.799","ELEMENT_SET_NO":"999","REV_AT_EPOCH":"3437","OBJECT_ID":"2022-077Z","RA_OF_ASC_NODE":"233.5493","PERIOD":"95.919"},{"SEMIMAJOR_AXIS":"6941.134","CLASSIFICATION_TYPE":"U","SITE":"AFWTR","CENTER_NAME":"EARTH","INCLINATION":"97.6556","MEAN_ELEMENT_THEORY":"SGP4","OBJECT_NAME":"STARLINK-4306","TLE_LINE1":"1 53067U 22077AA  23050.51139818  .00003463  00000-0  27402-3 0  9999","OBJECT_TYPE":"PAYLOAD","TLE_LINE2":"2 53067  97.6556 233.2847 0002092  95.8255 264.3208 15.01264284 33753","DECAY_DATE":null,"EPHEMERIS_TYPE":"0","RCS_SIZE":"LARGE","FILE":"3811610","NORAD_CAT_ID":"53067","REF_FRAME":"TEME","APOAPSIS":"564.451","ECCENTRICITY":"0.00020920","COUNTRY_CODE":"US","MEAN_MOTION_DDOT":"0.0000000000000","MEAN_MOTION":"15.01264284","EPOCH":"2023-02-19T12:16:24.802752","LAUNCH_DATE":"2022-07-11","ARG_OF_PERICENTER":"95.8255","TIME_SYSTEM":"UTC","BSTAR":"0.00027402000000","MEAN_ANOMALY":"264.3208","GP_ID":"226047432","PERIOD":"95.919","RA_OF_ASC_NODE":"233.2847","OBJECT_ID":"2022-077AA","MEAN_MOTION_DOT":"0.00003463","PERIAPSIS":"561.547","REV_AT_EPOCH":"3375","ELEMENT_SET_NO":"999"},{"GP_ID":"226047681","REV_AT_EPOCH":"3376","PERIAPSIS":"561.638","ELEMENT_SET_NO":"999","MEAN_MOTION_DOT":"0.00002742","RA_OF_ASC_NODE":"233.3516","PERIOD":"95.919","OBJECT_ID":"2022-077AB","ARG_OF_PERICENTER":"91.9209","MEAN_MOTION":"15.01267471","LAUNCH_DATE":"2022-07-11","EPOCH":"2023-02-19T13:55:24.370752","MEAN_ANOMALY":"268.2238","BSTAR":"0.00021791000000","TIME_SYSTEM":"UTC","APOAPSIS":"564.340","ECCENTRICITY":"0.00019460","EPHEMERIS_TYPE":"0","NORAD_CAT_ID":"53068","REF_FRAME":"TEME","FILE":"3811610","RCS_SIZE":"LARGE","COUNTRY_CODE":"US","MEAN_MOTION_DDOT":"0.0000000000000","SITE":"AFWTR","CENTER_NAME":"EARTH","SEMIMAJOR_AXIS":"6941.124","CLASSIFICATION_TYPE":"U","TLE_LINE1":"1 53068U 22077AB  23050.58014318  .00002742  00000-0  21791-3 0  9998","OBJECT_TYPE":"PAYLOAD","DECAY_DATE":null,"TLE_LINE2":"2 53068  97.6559 233.3516 0001946  91.9209 268.2238 15.01267471 33762","OBJECT_NAME":"STARLINK-4325","INCLINATION":"97.6559","MEAN_ELEMENT_THEORY":"SGP4"},{"RA_OF_ASC_NODE":"233.2828","PERIOD":"95.919","OBJECT_ID":"2022-077AC","ELEMENT_SET_NO":"999","PERIAPSIS":"561.518","REV_AT_EPOCH":"3375","MEAN_MOTION_DOT":"0.00002816","GP_ID":"226046431","TIME_SYSTEM":"UTC","MEAN_ANOMALY":"265.9028","BSTAR":"0.00022375000000","MEAN_MOTION":"15.01263981","LAUNCH_DATE":"2022-07-11","EPOCH":"2023-02-19T12:11:05.068320","ARG_OF_PERICENTER":"94.2441","COUNTRY_CODE":"US","MEAN_MOTION_DDOT":"0.0000000000000","EPHEMERIS_TYPE":"0","NORAD_CAT_ID":"53069","REF_FRAME":"TEME","RCS_SIZE":"LARGE","FILE":"3811610","APOAPSIS":"564.482","ECCENTRICITY":"0.00021350","OBJECT_NAME":"STARLINK-4323","INCLINATION":"97.6538","MEAN_ELEMENT_THEORY":"SGP4","OBJECT_TYPE":"PAYLOAD","TLE_LINE1":"1 53069U 22077AC  23050.50769755  .00002816  00000-0  22375-3 0  9994","DECAY_DATE":null,"TLE_LINE2":"2 53069  97.6538 233.2828 0002135  94.2441 265.9028 15.01263981 33752","SEMIMAJOR_AXIS":"6941.135","CLASSIFICATION_TYPE":"U","SITE":"AFWTR","CENTER_NAME":"EARTH"},{"MEAN_MOTION_DDOT":"0.0000000000000","COUNTRY_CODE":"US","ECCENTRICITY":"0.00018710","APOAPSIS":"564.278","NORAD_CAT_ID":"53070","REF_FRAME":"TEME","FILE":"3811610","RCS_SIZE":"LARGE","EPHEMERIS_TYPE":"0","DECAY_DATE":null,"TLE_LINE2":"2 53070  97.6547 233.3515 0001871  89.3573 270.7865 15.01270422 33767","OBJECT_TYPE":"PAYLOAD","TLE_LINE1":"1 53070U 22077AD  23050.57990199  .00004670  00000-0  36786-3 0  9992","OBJECT_NAME":"STARLINK-4342","INCLINATION":"97.6547","MEAN_ELEMENT_THEORY":"SGP4","SITE":"AFWTR","CENTER_NAME":"EARTH","CLASSIFICATION_TYPE":"U","SEMIMAJOR_AXIS":"6941.115","PERIAPSIS":"561.681","ELEMENT_SET_NO":"999","REV_AT_EPOCH":"3376","MEAN_MOTION_DOT":"0.00004670","OBJECT_ID":"2022-077AD","PERIOD":"95.919","RA_OF_ASC_NODE":"233.3515","GP_ID":"226046681","MEAN_ANOMALY":"270.7865","BSTAR":"0.00036786000000","TIME_SYSTEM":"UTC","ARG_OF_PERICENTER":"89.3573","LAUNCH_DATE":"2022-07-11","EPOCH":"2023-02-19T13:55:03.531936","MEAN_MOTION":"15.01270422"},{"APOAPSIS":"564.449","ECCENTRICITY":"0.00021170","EPHEMERIS_TYPE":"0","FILE":"3811767","RCS_SIZE":"MEDIUM","REF_FRAME":"TEME","NORAD_CAT_ID":"53071","COUNTRY_CODE":"US","MEAN_MOTION_DDOT":"0.0000000000000","SITE":"AFWTR","CENTER_NAME":"EARTH","SEMIMAJOR_AXIS":"6941.114","CLASSIFICATION_TYPE":"U","TLE_LINE1":"1 53071U 22077AE  23050.77245501  .00004192  00000-0  33068-3 0  9994","OBJECT_TYPE":"PAYLOAD","TLE_LINE2":"2 53071  97.6531 233.5445 0002117  95.9129 264.2337 15.01270520 34378","DECAY_DATE":null,"MEAN_ELEMENT_THEORY":"SGP4","INCLINATION":"97.6531","OBJECT_NAME":"STARLINK-4328","GP_ID":"226053383","MEAN_MOTION_DOT":"0.00004192","REV_AT_EPOCH":"3437","PERIAPSIS":"561.510","ELEMENT_SET_NO":"999","PERIOD":"95.919","RA_OF_ASC_NODE":"233.5445","OBJECT_ID":"2022-077AE","ARG_OF_PERICENTER":"95.9129","MEAN_MOTION":"15.01270520","EPOCH":"2023-02-19T18:32:20.112864","LAUNCH_DATE":"2022-07-11","BSTAR":"0.00033068000000","MEAN_ANOMALY":"264.2337","TIME_SYSTEM":"UTC"},{"NORAD_CAT_ID":"53072","REF_FRAME":"TEME","FILE":"3811610","RCS_SIZE":"LARGE","EPHEMERIS_TYPE":"0","ECCENTRICITY":"0.00023100","APOAPSIS":"564.565","MEAN_MOTION_DDOT":"0.0000000000000","COUNTRY_CODE":"US","CLASSIFICATION_TYPE":"U","SEMIMAJOR_AXIS":"6941.096","CENTER_NAME":"EARTH","SITE":"AFWTR","OBJECT_NAME":"STARLINK-4344","INCLINATION":"97.6539","MEAN_ELEMENT_THEORY":"SGP4","DECAY_DATE":null,"TLE_LINE2":"2 53072  97.6539 233.3501 0002310  94.9907 265.1581 15.01276347 33762","TLE_LINE1":"1 53072U 22077AF  23050.57620071  .00007506  00000-0  58811-3 0  9997","OBJECT_TYPE":"PAYLOAD","GP_ID":"226048180","OBJECT_ID":"2022-077AF","PERIOD":"95.918","RA_OF_ASC_NODE":"233.3501","PERIAPSIS":"561.358","REV_AT_EPOCH":"3376","ELEMENT_SET_NO":"999","MEAN_MOTION_DOT":"0.00007506","LAUNCH_DATE":"2022-07-11","EPOCH":"2023-02-19T13:49:43.741344","MEAN_MOTION":"15.01276347","ARG_OF_PERICENTER":"94.9907","TIME_SYSTEM":"UTC","MEAN_ANOMALY":"265.1581","BSTAR":"0.00058811000000"}];
